NOAA 20 (JPSS-1)
1 43013U 17073A   26190.83888940  .00000010  00000+0  25762-4 0  9991
2 43013  98.7774 130.1006 0001175 129.4717 230.6563 14.19515789447685
